NORAD_CAT_ID,OBJECT_NAME,OBJECT_TYPE,EPOCH,MEAN_MOTION,ECCENTRICITY,INCLINATION,RA_OF_ASC_NODE,ARG_OF_PERICENTER,MEAN_ANOMALY,BSTAR,MEAN_MOTION_DOT,MEAN_MOTION_DDOT,TLE_LINE0,TLE_LINE1,TLE_LINE2,SEMIMAJOR_AXIS,PERIOD,APOGEE,PERIGEE,DECAYED
53389.0,STARLINK-4523,PAYLOAD,2024-04-20 14:44:26,15.08838829,0.000137,53.2199,333.0056,98.7886,261.3261,-0.00014489,-2.593e-05,0.0,0 STARLINK-4523,1 53389U 22097B   24111.61419904 -.00002593  00000-0 -14489-3 0  9991,2 53389  53.2199 333.0056 0001370  98.7886 261.3261 15.08838829 94798,6917.884,95.438,540.697,538.801,0.0
53389.0,STARLINK-4523,PAYLOAD,2024-04-20 19:30:36,15.08843381,0.000177,53.2195,332.1163,99.8318,260.2874,0.00011134,1.484e-05,0.0,0 STARLINK-4523,1 53389U 22097B   24111.81291839  .00001484  00000-0  11134-3 0  9998,2 53389  53.2195 332.1163 0001770  99.8318 260.2874 15.08843381 94178,6917.87,95.437,540.96,538.511,0.0
53389.0,STARLINK-4523,PAYLOAD,2024-04-21 14:35:13,15.08840944,0.0001415,53.2182,328.5449,112.0322,248.082,0.0001756,2.508e-05,0.0,0 STARLINK-4523,1 53389U 22097B   24112.60779820  .00002508  00000-0  17560-3 0  9994,2 53389  53.2182 328.5449 0001415 112.0322 248.0820 15.08840944 94941,6917.878,95.437,540.721,538.764,0.0
53389.0,STARLINK-4523,PAYLOAD,2024-04-21 20:56:46,15.0883788,0.0001335,53.2182,327.3561,98.7597,261.3546,-9.2132e-05,-1.754e-05,0.0,0 STARLINK-4523,1 53389U 22097B   24112.87276218 -.00001754  00000-0 -92132-4 0  9999,2 53389  53.2182 327.3561 0001335  98.7597 261.3546 15.08837880 94339,6917.887,95.438,540.675,538.828,0.0
53389.0,STARLINK-4523,PAYLOAD,2024-04-22 00:07:32,15.08839398,0.000154,53.2187,326.7628,108.7954,251.3205,-0.00013299,-2.404e-05,0.0,0 STARLINK-4523,1 53389U 22097B   24113.00524215 -.00002404  00000-0 -13299-3 0  9997,2 53389  53.2187 326.7628 0001540 108.7954 251.3205 15.08839398 95000,6917.882,95.438,540.813,538.682,0.0
53389.0,STARLINK-4523,PAYLOAD,2024-04-22 20:47:34,15.08833271,0.0001262,53.2193,322.8966,97.1602,262.9534,-3.3211e-05,-8.16e-06,0.0,0 STARLINK-4523,1 53389U 22097B   24113.86637361 -.00000816  00000-0 -33211-4 0  9990,2 53389  53.2193 322.8966 0001262  97.1602 262.9534 15.08833271 94489,6917.901,95.438,540.639,538.893,0.0
53389.0,STARLINK-4523,PAYLOAD,2024-04-22 23:58:20,15.08835237,0.0001349,53.2192,322.3015,103.7464,256.3678,-2.0245e-05,-6.1e-06,0.0,0 STARLINK-4523,1 53389U 22097B   24113.99885207 -.00000610  00000-0 -20245-4 0  9993,2 53389  53.2192 322.3015 0001349 103.7464 256.3678 15.08835237 95159,6917.895,95.438,540.693,538.827,0.0
53389.0,STARLINK-4523,PAYLOAD,2024-04-23 20:38:20,15.08843475,0.0001341,53.219,318.4366,103.4613,256.6529,0.00022354,3.272e-05,0.0,0 STARLINK-4523,1 53389U 22097B   24114.85996384  .00003272  00000-0  22354-3 0  9995,2 53389  53.2190 318.4366 0001341 103.4613 256.6529 15.08843475 94630,6917.87,95.437,540.662,538.807,0.0
53389.0,STARLINK-4523,PAYLOAD,2024-04-23 23:49:06,15.08851776,0.0001181,53.2185,317.8409,93.1893,266.9234,0.00029339,4.386e-05,0.0,0 STARLINK-4523,1 53389U 22097B   24114.99243657  .00004386  00000-0  29339-3 0  9995,2 53389  53.2185 317.8409 0001181  93.1893 266.9234 15.08851776 94654,6917.844,95.437,540.526,538.892,0.0
53389.0,STARLINK-4523,PAYLOAD,2024-04-24 12:32:14,15.08818625,7.89e-05,53.2187,315.463,118.4639,241.6432,7.6721e-05,9.33e-06,0.0,0 STARLINK-4523,1 53389U 22097B   24115.52238643  .00000933  00000-0  76721-4 0  9996,2 53389  53.2187 315.4630 0000789 118.4639 241.6432 15.08818625 94733,6917.946,95.439,540.357,539.265,0.0
53389.0,STARLINK-4523,PAYLOAD,2024-04-24 18:53:46,15.0882885,0.0001129,53.2189,314.2805,93.9848,266.1273,6.0716e-05,6.78e-06,0.0,0 STARLINK-4523,1 53389U 22097B   24115.78734322  .00000678  00000-0  60716-4 0  9992,2 53389  53.2189 314.2805 0001129  93.9848 266.1273 15.08828850 94774,6917.914,95.438,540.561,538.998,0.0
53389.0,STARLINK-4523,PAYLOAD,2024-04-24 22:04:32,15.08831942,0.0001146,53.2191,313.685,95.7787,264.3336,8.1605e-05,1.011e-05,0.0,0 STARLINK-4523,1 53389U 22097B   24115.91982179  .00001011  00000-0  81605-4 0  9994,2 53389  53.2191 313.6850 0001146  95.7787 264.3336 15.08831942 95442,6917.905,95.438,540.563,538.977,0.0
53389.0,STARLINK-4523,PAYLOAD,2024-04-25 20:19:55,15.08852542,0.0001434,53.2185,309.5215,70.0783,290.0363,7.8335e-05,9.59e-06,0.0,0 STARLINK-4523,1 53389U 22097B   24116.84716919  .00000959  00000-0  78335-4 0  9990,2 53389  53.2185 309.5215 0001434  70.0783 290.0363 15.08852542 94934,6917.842,95.437,540.699,538.715,0.0
53389.0,STARLINK-4523,PAYLOAD,2024-04-25 21:55:18,15.08855086,0.0001443,53.2184,309.2211,68.5196,291.595,0.00013249,1.822e-05,0.0,0 STARLINK-4523,1 53389U 22097B   24116.91340728  .00001822  00000-0  13249-3 0  9991,2 53389  53.2184 309.2211 0001443  68.5196 291.5950 15.08855086 95593,6917.834,95.437,540.698,538.701,0.0
53389.0,STARLINK-4523,PAYLOAD,2024-04-26 05:52:14,15.08849254,0.0001232,53.2185,307.7324,78.9868,281.1263,4.1787e-06,-2.21e-06,0.0,0 STARLINK-4523,1 53389U 22097B   24117.24460687 -.00000221  00000-0  41787-5 0  9998,2 53389  53.2185 307.7324 0001232  78.9868 281.1263 15.08849254 95647,6917.852,95.437,540.569,538.865,0.0
53389.0,STARLINK-4523,PAYLOAD,2024-04-26 18:35:19,15.08838113,0.0001032,53.2175,305.3577,78.0102,282.1006,9.4464e-05,1.216e-05,0.0,0 STARLINK-4523,1 53389U 22097B   24117.77453470  .00001216  00000-0  94464-4 0  9991,2 53389  53.2175 305.3577 0001032  78.0102 282.1006 15.08838113 95075,6917.886,95.438,540.465,539.037,0.0
53389.0,STARLINK-4523,PAYLOAD,2024-04-27 12:04:33,15.08850024,0.0001646,53.2178,302.0849,91.0481,269.07,6.673e-06,-1.82e-06,0.0,0 STARLINK-4523,1 53389U 22097B   24118.50316950 -.00000182  00000-0  66730-5 0  9992,2 53389  53.2178 302.0849 0001646  91.0481 269.0700 15.08850024 95182,6917.85,95.437,540.853,538.576,0.0
53389.0,STARLINK-4523,PAYLOAD,2024-04-27 18:26:06,15.08850768,0.0001191,53.2156,300.8954,107.4325,252.6798,2.0926e-05,4.5e-07,0.0,0 STARLINK-4523,1 53389U 22097B   24118.76812552  .00000045  00000-0  20926-4 0  9992,2 53389  53.2156 300.8954 0001191 107.4325 252.6798 15.08850768 95871,6917.847,95.437,540.536,538.889,0.0
53389.0,STARLINK-4523,PAYLOAD,2024-04-28 05:33:48,15.08842305,0.0001101,53.2192,298.8123,93.6068,266.505,4.0224e-05,3.52e-06,0.0,0 STARLINK-4523,1 53389U 22097B   24119.23180958  .00000352  00000-0  40224-4 0  9997,2 53389  53.2192 298.8123 0001101  93.6068 266.5050 15.08842305 95295,6917.873,95.437,540.5,538.977,0.0
53389.0,STARLINK-4523,PAYLOAD,2024-04-28 11:55:21,15.08834237,0.0001489,53.2174,297.624,99.8127,260.3033,2.4252e-05,9.8e-07,0.0,0 STARLINK-4523,1 53389U 22097B   24119.49677577  .00000098  00000-0  24252-4 0  9993,2 53389  53.2174 297.6240 0001489  99.8127 260.3033 15.08834237 95338,6917.898,95.438,540.793,538.733,0.0
53389.0,STARLINK-4523,PAYLOAD,2024-04-28 18:16:54,15.08830404,0.0001376,53.2167,296.4351,87.9831,272.1319,-1.8697e-05,-5.85e-06,0.0,0 STARLINK-4523,1 53389U 22097B   24119.76173895 -.00000585  00000-0 -18697-4 0  9996,2 53389  53.2167 296.4351 0001376  87.9831 272.1319 15.08830404 96022,6917.91,95.438,540.727,538.823,0.0
53389.0,STARLINK-4523,PAYLOAD,2024-04-29 14:56:54,15.08842164,0.0001266,53.2171,292.571,85.1138,274.9999,0.00018667,2.684e-05,0.0,0 STARLINK-4523,1 53389U 22097B   24120.62285580  .00002684  00000-0  18667-3 0  9994,2 53389  53.2171 292.5710 0001266  85.1138 274.9999 15.08842164 96155,6917.874,95.437,540.615,538.863,0.0
53389.0,STARLINK-4523,PAYLOAD,2024-04-29 18:07:40,15.08847596,0.0001248,53.2177,291.9762,86.2817,273.8317,0.00027929,4.161e-05,0.0,0 STARLINK-4523,1 53389U 22097B   24120.75533385  .00004161  00000-0  27929-3 0  9990,2 53389  53.2177 291.9762 0001248  86.2817 273.8317 15.08847596 95523,6917.857,95.437,540.586,538.859,0.0
53389.0,STARLINK-4523,PAYLOAD,2024-04-30 14:47:42,15.08833973,0.0001184,53.2187,288.1108,73.0891,287.0231,0.00013244,1.82e-05,0.0,0 STARLINK-4523,1 53389U 22097B   24121.61646492  .00001820  00000-0  13244-3 0  9994,2 53389  53.2187 288.1108 0001184  73.0891 287.0231 15.08833973 96304,6917.899,95.438,540.583,538.945,0.0
53389.0,STARLINK-4523,PAYLOAD,2024-04-30 17:58:29,15.08829084,0.0001215,53.2187,287.5169,76.6477,283.4651,-3.2403e-05,-8.03e-06,0.0,0 STARLINK-4523,1 53389U 22097B   24121.74894685 -.00000803  00000-0 -32403-4 0  9998,2 53389  53.2187 287.5169 0001215  76.6477 283.4651 15.08829084 95671,6917.914,95.438,540.619,538.938,0.0
53389.0,STARLINK-4523,PAYLOAD,2024-05-01 11:27:42,15.08847557,9.91e-05,53.2168,284.2408,74.1296,285.9806,0.00011043,1.471e-05,0.0,0 STARLINK-4523,1 53389U 22097B   24122.47757968  .00001471  00000-0  11043-3 0  9997,2 53389  53.2168 284.2408 0000991  74.1296 285.9806 15.08847557 95788,6917.857,95.437,540.408,539.037,0.0
53389.0,STARLINK-4523,PAYLOAD,2024-05-01 17:49:14,15.08857478,0.000106,53.2174,283.0545,83.5807,276.5306,0.00027432,4.083e-05,0.0,0 STARLINK-4523,1 53389U 22097B   24122.74253354  .00004083  00000-0  27432-3 0  9998,2 53389  53.2174 283.0545 0001060  83.5807 276.5306 15.08857478 95823,6917.827,95.436,540.425,538.959,0.0
53389.0,STARLINK-4523,PAYLOAD,2024-05-02 03:21:33,15.08848504,9.13e-05,53.2172,281.2756,96.1151,263.9945,0.00014618,2.04e-05,0.0,0 STARLINK-4523,1 53389U 22097B   24123.13997604  .00002040  00000-0  14618-3 0  9998,2 53389  53.2172 281.2756 0000913  96.1151 263.9945 15.08848504 95888,6917.854,95.437,540.351,539.088,0.0
53389.0,STARLINK-4523,PAYLOAD,2024-05-02 09:43:07,15.08838304,0.0001618,53.2175,280.0796,83.1817,276.9359,0.0001528,2.145e-05,0.0,0 STARLINK-4523,1 53389U 22097B   24123.40494451  .00002145  00000-0  15280-3 0  9992,2 53389  53.2175 280.0796 0001618  83.1817 276.9359 15.08838304 95925,6917.886,95.438,540.87,538.631,0.0
53389.0,STARLINK-4523,PAYLOAD,2024-05-02 14:29:16,15.08832923,0.0001034,53.2164,279.1916,97.1864,262.9246,-2.7856e-05,-7.31e-06,0.0,0 STARLINK-4523,1 53389U 22097B   24123.60366442 -.00000731  00000-0 -27856-4 0  9996,2 53389  53.2164 279.1916 0001034  97.1864 262.9246 15.08832923 96602,6917.902,95.438,540.482,539.052,0.0
